{
 "generated_at": "2026-06-18T09:14:20Z",
 "sources": [
  {
   "name": "CelesTrak",
   "url": "https://celestrak.org/NORAD/elements/",
   "license": "frei verfügbar; Attribution. Ursprünglich USSPACECOM/Space-Track."
  },
  {
   "name": "GCAT (J. McDowell, planet4589.org)",
   "url": "https://planet4589.org/space/gcat/",
   "license": "CC-BY 4.0"
  }
 ],
 "satellites": [
  {
   "norad": 43833,
   "name": "SAUDISAT 5B",
   "intl": "2018-102C",
   "group": "resource",
   "gcat": {
    "class": "C",
    "category": "TECH",
    "owner": "KACST",
    "state": "SA"
   },
   "omm": {
    "OBJECT_NAME": "SAUDISAT 5B",
    "OBJECT_ID": "2018-102C",
    "EPOCH": "2026-06-17T23:15:52.869024",
    "MEAN_MOTION": 15.28311353,
    "ECCENTRICITY": 0.00117303,
    "INCLINATION": 97.3172,
    "RA_OF_ASC_NODE": 233.6064,
    "ARG_OF_PERICENTER": 128.8888,
    "MEAN_ANOMALY": 231.34,
    "EPHEMERIS_TYPE": 0,
    "CLASSIFICATION_TYPE": "U",
    "NORAD_CAT_ID": 43833,
    "ELEMENT_SET_NO": 999,
    "REV_AT_EPOCH": 41591,
    "BSTAR": 0.00015992533,
    "MEAN_MOTION_DOT": 0.00004344,
    "MEAN_MOTION_DDOT": 0
   }
  },
  {
   "norad": 41790,
   "name": "SCATSAT 1",
   "intl": "2016-059H",
   "group": "resource",
   "gcat": {
    "class": null,
    "category": null,
    "owner": null,
    "state": null
   },
   "omm": {
    "OBJECT_NAME": "SCATSAT 1",
    "OBJECT_ID": "2016-059H",
    "EPOCH": "2026-06-17T18:06:12.198240",
    "MEAN_MOTION": 14.79526505,
    "ECCENTRICITY": 0.00534049,
    "INCLINATION": 98.1191,
    "RA_OF_ASC_NODE": 232.5263,
    "ARG_OF_PERICENTER": 245.6154,
    "MEAN_ANOMALY": 113.9478,
    "EPHEMERIS_TYPE": 0,
    "CLASSIFICATION_TYPE": "U",
    "NORAD_CAT_ID": 41790,
    "ELEMENT_SET_NO": 999,
    "REV_AT_EPOCH": 10167,
    "BSTAR": 0.00011890312,
    "MEAN_MOTION_DOT": 0.00000853,
    "MEAN_MOTION_DDOT": 0
   }
  },
  {
   "norad": 22490,
   "name": "SCD 1",
   "intl": "1993-009B",
   "group": "resource",
   "gcat": {
    "class": "C",
    "category": "COM",
    "owner": "INPE",
    "state": "BR"
   },
   "omm": {
    "OBJECT_NAME": "SCD 1",
    "OBJECT_ID": "1993-009B",
    "EPOCH": "2026-06-17T12:30:04.011264",
    "MEAN_MOTION": 14.46118916,
    "ECCENTRICITY": 0.00420672,
    "INCLINATION": 24.9678,
    "RA_OF_ASC_NODE": 205.517,
    "ARG_OF_PERICENTER": 141.2248,
    "MEAN_ANOMALY": 338.0371,
    "EPHEMERIS_TYPE": 0,
    "CLASSIFICATION_TYPE": "U",
    "NORAD_CAT_ID": 22490,
    "ELEMENT_SET_NO": 999,
    "REV_AT_EPOCH": 76116,
    "BSTAR": 0.000038485939,
    "MEAN_MOTION_DOT": 0.00000327,
    "MEAN_MOTION_DDOT": 0
   }
  },
  {
   "norad": 25504,
   "name": "SCD 2",
   "intl": "1998-060A",
   "group": "resource",
   "gcat": {
    "class": "C",
    "category": "COM",
    "owner": "INPE",
    "state": "BR"
   },
   "omm": {
    "OBJECT_NAME": "SCD 2",
    "OBJECT_ID": "1998-060A",
    "EPOCH": "2026-06-17T04:18:34.238880",
    "MEAN_MOTION": 14.45525886,
    "ECCENTRICITY": 0.00169457,
    "INCLINATION": 24.9954,
    "RA_OF_ASC_NODE": 72.204,
    "ARG_OF_PERICENTER": 122.8124,
    "MEAN_ANOMALY": 10.9716,
    "EPHEMERIS_TYPE": 0,
    "CLASSIFICATION_TYPE": "U",
    "NORAD_CAT_ID": 25504,
    "ELEMENT_SET_NO": 999,
    "REV_AT_EPOCH": 46032,
    "BSTAR": 0.000048260154,
    "MEAN_MOTION_DOT": 0.00000355,
    "MEAN_MOTION_DDOT": 0
   }
  },
  {
   "norad": 39634,
   "name": "SENTINEL-1A",
   "intl": "2014-016A",
   "group": "resource",
   "gcat": {
    "class": "C",
    "category": "IMG-R",
    "owner": "ESA",
    "state": "I-ESA"
   },
   "omm": {
    "OBJECT_NAME": "SENTINEL-1A",
    "OBJECT_ID": "2014-016A",
    "EPOCH": "2026-06-17T23:37:52.699008",
    "MEAN_MOTION": 14.59198641,
    "ECCENTRICITY": 0.00014246,
    "INCLINATION": 98.1772,
    "RA_OF_ASC_NODE": 176.5056,
    "ARG_OF_PERICENTER": 79.0182,
    "MEAN_ANOMALY": 281.1178,
    "EPHEMERIS_TYPE": 0,
    "CLASSIFICATION_TYPE": "U",
    "NORAD_CAT_ID": 39634,
    "ELEMENT_SET_NO": 999,
    "REV_AT_EPOCH": 65013,
    "BSTAR": 0.000016112697,
    "MEAN_MOTION_DOT": 3e-7,
    "MEAN_MOTION_DDOT": 0
   }
  },
  {
   "norad": 62261,
   "name": "SENTINEL-1C",
   "intl": "2024-235A",
   "group": "sar",
   "gcat": {
    "class": "C",
    "category": "IMG-R",
    "owner": "COPERN/ESA",
    "state": "I-EU"
   },
   "omm": {
    "OBJECT_NAME": "SENTINEL-1C",
    "OBJECT_ID": "2024-235A",
    "EPOCH": "2026-06-17T22:52:43.303872",
    "MEAN_MOTION": 14.58604804,
    "ECCENTRICITY": 0.00013647,
    "INCLINATION": 98.182,
    "RA_OF_ASC_NODE": 176.2525,
    "ARG_OF_PERICENTER": 89.2778,
    "MEAN_ANOMALY": 270.8578,
    "EPHEMERIS_TYPE": 0,
    "CLASSIFICATION_TYPE": "U",
    "NORAD_CAT_ID": 62261,
    "ELEMENT_SET_NO": 999,
    "REV_AT_EPOCH": 8152,
    "BSTAR": 0.000033128597,
    "MEAN_MOTION_DOT": 0.00000109,
    "MEAN_MOTION_DDOT": 0
   }
  },
  {
   "norad": 66315,
   "name": "SENTINEL-1D",
   "intl": "2025-251A",
   "group": "sar",
   "gcat": {
    "class": "C",
    "category": "IMG-R",
    "owner": "COPERN/ESA",
    "state": "I-EU"
   },
   "omm": {
    "OBJECT_NAME": "SENTINEL-1D",
    "OBJECT_ID": "2025-251A",
    "EPOCH": "2026-06-17T12:14:12.469920",
    "MEAN_MOTION": 14.5919877,
    "ECCENTRICITY": 0.00013846,
    "INCLINATION": 98.1827,
    "RA_OF_ASC_NODE": 175.8651,
    "ARG_OF_PERICENTER": 90.1468,
    "MEAN_ANOMALY": 269.9891,
    "EPHEMERIS_TYPE": 0,
    "CLASSIFICATION_TYPE": "U",
    "NORAD_CAT_ID": 66315,
    "ELEMENT_SET_NO": 999,
    "REV_AT_EPOCH": 3277,
    "BSTAR": 0.000034094537,
    "MEAN_MOTION_DOT": 0.00000115,
    "MEAN_MOTION_DDOT": 0
   }
  },
  {
   "norad": 40697,
   "name": "SENTINEL-2A",
   "intl": "2015-028A",
   "group": "resource",
   "gcat": {
    "class": "C",
    "category": "IMG",
    "owner": "COPERN/ESA",
    "state": "I-EU"
   },
   "omm": {
    "OBJECT_NAME": "SENTINEL-2A",
    "OBJECT_ID": "2015-028A",
    "EPOCH": "2026-06-17T21:56:09.013344",
    "MEAN_MOTION": 14.30814629,
    "ECCENTRICITY": 0.00011026,
    "INCLINATION": 98.5687,
    "RA_OF_ASC_NODE": 243.7552,
    "ARG_OF_PERICENTER": 89.7477,
    "MEAN_ANOMALY": 270.3833,
    "EPHEMERIS_TYPE": 0,
    "CLASSIFICATION_TYPE": "U",
    "NORAD_CAT_ID": 40697,
    "ELEMENT_SET_NO": 999,
    "REV_AT_EPOCH": 57383,
    "BSTAR": -0.00003220594,
    "MEAN_MOTION_DOT": -0.00000128,
    "MEAN_MOTION_DDOT": 0
   }
  },
  {
   "norad": 42063,
   "name": "SENTINEL-2B",
   "intl": "2017-013A",
   "group": "resource",
   "gcat": {
    "class": "C",
    "category": "IMG",
    "owner": "COPERN/ESA",
    "state": "I-EU"
   },
   "omm": {
    "OBJECT_NAME": "SENTINEL-2B",
    "OBJECT_ID": "2017-013A",
    "EPOCH": "2026-06-17T23:26:28.889664",
    "MEAN_MOTION": 14.30816468,
    "ECCENTRICITY": 0.0001193,
    "INCLINATION": 98.5695,
    "RA_OF_ASC_NODE": 243.74,
    "ARG_OF_PERICENTER": 87.6805,
    "MEAN_ANOMALY": 272.4514,
    "EPHEMERIS_TYPE": 0,
    "CLASSIFICATION_TYPE": "U",
    "NORAD_CAT_ID": 42063,
    "ELEMENT_SET_NO": 999,
    "REV_AT_EPOCH": 48475,
    "BSTAR": -0.000010237586,
    "MEAN_MOTION_DOT": -7e-7,
    "MEAN_MOTION_DDOT": 0
   }
  },
  {
   "norad": 60989,
   "name": "SENTINEL-2C",
   "intl": "2024-157A",
   "group": "resource",
   "gcat": {
    "class": "C",
    "category": "IMG",
    "owner": "COPERN/ESA",
    "state": "I-EU"
   },
   "omm": {
    "OBJECT_NAME": "SENTINEL-2C",
    "OBJECT_ID": "2024-157A",
    "EPOCH": "2026-06-17T19:14:45.549312",
    "MEAN_MOTION": 14.30817989,
    "ECCENTRICITY": 0.00010145,
    "INCLINATION": 98.5693,
    "RA_OF_ASC_NODE": 243.5752,
    "ARG_OF_PERICENTER": 82.1905,
    "MEAN_ANOMALY": 277.9393,
    "EPHEMERIS_TYPE": 0,
    "CLASSIFICATION_TYPE": "U",
    "NORAD_CAT_ID": 60989,
    "ELEMENT_SET_NO": 999,
    "REV_AT_EPOCH": 9307,
    "BSTAR": 0.000051065088,
    "MEAN_MOTION_DOT": 9e-7,
    "MEAN_MOTION_DDOT": 0
   }
  }
 ]
}
